[{"OBJECT_NAME":"STARLINK-30138","OBJECT_ID":"2023-119D","EPOCH":"2026-03-09T22:00:01.999584","MEAN_MOTION":15.18642851,"ECCENTRICITY":0.00018596,"INCLINATION":42.9999,"RA_OF_ASC_NODE":79.8718,"ARG_OF_PERICENTER":289.7166,"MEAN_ANOMALY":152.9836,"EPHEMERIS_TYPE":0,"CLASSIFICATION_TYPE":"U","NORAD_CAT_ID":57605,"ELEMENT_SET_NO":999,"REV_AT_EPOCH":578,"BSTAR":0.055933953,"MEAN_MOTION_DOT":0.01276737,"MEAN_MOTION_DDOT":0},{"OBJECT_NAME":"CZ-4C R\/B","OBJECT_ID":"2022-039B","EPOCH":"2026-03-09T15:51:32.485824","MEAN_MOTION":15.03008334,"ECCENTRICITY":0.0113659,"INCLINATION":98.2525,"RA_OF_ASC_NODE":105.9247,"ARG_OF_PERICENTER":45.8852,"MEAN_ANOMALY":315.1654,"EPHEMERIS_TYPE":0,"CLASSIFICATION_TYPE":"U","NORAD_CAT_ID":52258,"ELEMENT_SET_NO":999,"REV_AT_EPOCH":21291,"BSTAR":0.00022979194,"MEAN_MOTION_DOT":3.483e-5,"MEAN_MOTION_DDOT":0}]
